[{"OBJECT_NAME":"TRANSPORTER-11 OBJECT A","OBJECT_ID":"2024-149A","EPOCH":"2026-03-09T17:54:54.302112","MEAN_MOTION":15.31141332,"ECCENTRICITY":0.00031096,"INCLINATION":97.378,"RA_OF_ASC_NODE":149.0949,"ARG_OF_PERICENTER":191.001,"MEAN_ANOMALY":169.1164,"EPHEMERIS_TYPE":0,"CLASSIFICATION_TYPE":"U","NORAD_CAT_ID":60468,"ELEMENT_SET_NO":999,"REV_AT_EPOCH":8683,"BSTAR":0.00036053677,"MEAN_MOTION_DOT":0.00010774,"MEAN_MOTION_DDOT":0},{"OBJECT_NAME":"STARLINK-33617","OBJECT_ID":"2025-063L","EPOCH":"2026-03-09T22:26:27.259008","MEAN_MOTION":15.30210335,"ECCENTRICITY":0.0001352,"INCLINATION":53.161,"RA_OF_ASC_NODE":48.7184,"ARG_OF_PERICENTER":86.2246,"MEAN_ANOMALY":273.891,"EPHEMERIS_TYPE":0,"CLASSIFICATION_TYPE":"U","NORAD_CAT_ID":63373,"ELEMENT_SET_NO":999,"REV_AT_EPOCH":5478,"BSTAR":0.00090915593,"MEAN_MOTION_DOT":0.00026673,"MEAN_MOTION_DDOT":0}]
